STARLINK-35825          
1 66567U 25268L   25352.58043415  .00089531  00000+0  15117-2 0  9992
2 66567  42.9997  86.9948 0001066 261.3868  98.6871 15.50631534  5538
STARLINK-35803          
1 66568U 25268M   25352.58010829  .00096711  00000+0  16338-2 0  9990
2 66568  43.0015  86.9919 0001558 256.0458 104.0229 15.50582423  5533
STARLINK-35835          
1 66569U 25268N   25352.57974295  .00061239  00000+0  10403-2 0  9990
2 66569  43.0035  86.9888 0002583 263.7698  96.2868 15.50610591  5530
STARLINK-35834          
1 66570U 25268P   25352.57940274  .00116020  00000+0  19513-2 0  9992
2 66570  43.0029  86.9860 0001945 272.5695  87.4943 15.50622128  5536
STARLINK-35836          
1 66571U 25268Q   25352.57905239  .00084205  00000+0  14217-2 0  9990
2 66571  43.0050  86.9833 0002940 265.2531  94.7993 15.50657425  5539
STARLINK-35870          
1 66572U 25268R   25352.57871607  .00069302  00000+0  11751-2 0  9993
2 66572  43.0005  86.9812 0002025 264.3223  95.7406 15.50616693  5531
STARLINK-35650          
1 66573U 25268S   25352.57837063  .00062563  00000+0  10623-2 0  9991
2 66573  43.0037  86.9781 0002445 266.7745  93.2835 15.50616694  5533
STARLINK-35812          
1 66574U 25268T   25352.57805386  .00083697  00000+0  14172-2 0  9999
2 66574  43.0017  86.9742 0000991 254.2055 105.8696 15.50580135  5534
STARLINK-35810          
1 66575U 25268U   25352.57768903  .00080126  00000+0  13555-2 0  9991
2 66575  42.9978  86.9711 0001255 258.1101 101.9618 15.50624193  5538
STARLINK-35814          
1 66576U 25268V   25352.57734672  .00104423  00000+0  17581-2 0  9998
2 66576  42.9999  86.9684 0000785 254.7865 105.2909 15.50643987  5539
STARLINK-35815          
1 66577U 25268W   25352.57699948  .00065066  00000+0  11034-2 0  9991
2 66577  42.9975  86.9649 0000826 201.5718 158.5107 15.50637566  5535
STARLINK-35743          
1 66578U 25268X   25352.57666026  .00078256  00000+0  13256-2 0  9996
2 66578  42.9988  86.9631 0002945 282.0124  78.0406 15.50594613  5533
