CCSDS_OMM_VERS = 2.0
CREATION_DATE  = 
ORIGINATOR     = 

OBJECT_NAME    = STARLINK-35825
OBJECT_ID      = 2025-268L
CENTER_NAME    = EARTH
REF_FRAME      = TEME
TIME_SYSTEM    = UTC
MEAN_ELEMENT_THEORY = SGP/SGP4

EPOCH          = 2025-12-18T13:55:49.510560
MEAN_MOTION    = 15.50631534
ECCENTRICITY   = .00010665
INCLINATION    = 42.9997
RA_OF_ASC_NODE = 86.9948
ARG_OF_PERICENTER = 261.3868
MEAN_ANOMALY   = 98.6871

EPHEMERIS_TYPE = 0
CLASSIFICATION_TYPE = U
NORAD_CAT_ID   = 66567
ELEMENT_SET_NO = 999
REV_AT_EPOCH   = 553
BSTAR          = .15117142E-2
MEAN_MOTION_DOT = .89531E-3
MEAN_MOTION_DDOT = 0

CCSDS_OMM_VERS = 2.0
CREATION_DATE  = 
ORIGINATOR     = 

OBJECT_NAME    = STARLINK-35803
OBJECT_ID      = 2025-268M
CENTER_NAME    = EARTH
REF_FRAME      = TEME
TIME_SYSTEM    = UTC
MEAN_ELEMENT_THEORY = SGP/SGP4

EPOCH          = 2025-12-18T13:55:21.356256
MEAN_MOTION    = 15.50582423
ECCENTRICITY   = .00015584
INCLINATION    = 43.0015
RA_OF_ASC_NODE = 86.9919
ARG_OF_PERICENTER = 256.0458
MEAN_ANOMALY   = 104.0229

EPHEMERIS_TYPE = 0
CLASSIFICATION_TYPE = U
NORAD_CAT_ID   = 66568
ELEMENT_SET_NO = 999
REV_AT_EPOCH   = 553
BSTAR          = .16338255E-2
MEAN_MOTION_DOT = .96711E-3
MEAN_MOTION_DDOT = 0

CCSDS_OMM_VERS = 2.0
CREATION_DATE  = 
ORIGINATOR     = 

OBJECT_NAME    = STARLINK-35835
OBJECT_ID      = 2025-268N
CENTER_NAME    = EARTH
REF_FRAME      = TEME
TIME_SYSTEM    = UTC
MEAN_ELEMENT_THEORY = SGP/SGP4

EPOCH          = 2025-12-18T13:54:49.790880
MEAN_MOTION    = 15.50610591
ECCENTRICITY   = .00025838
INCLINATION    = 43.0035
RA_OF_ASC_NODE = 86.9888
ARG_OF_PERICENTER = 263.7698
MEAN_ANOMALY   = 96.2868

EPHEMERIS_TYPE = 0
CLASSIFICATION_TYPE = U
NORAD_CAT_ID   = 66569
ELEMENT_SET_NO = 999
REV_AT_EPOCH   = 553
BSTAR          = .10402958E-2
MEAN_MOTION_DOT = .61239E-3
MEAN_MOTION_DDOT = 0

CCSDS_OMM_VERS = 2.0
CREATION_DATE  = 
ORIGINATOR     = 

OBJECT_NAME    = STARLINK-35834
OBJECT_ID      = 2025-268P
CENTER_NAME    = EARTH
REF_FRAME      = TEME
TIME_SYSTEM    = UTC
MEAN_ELEMENT_THEORY = SGP/SGP4

EPOCH          = 2025-12-18T13:54:20.396736
MEAN_MOTION    = 15.50622128
ECCENTRICITY   = .00019453
INCLINATION    = 43.0029
RA_OF_ASC_NODE = 86.9860
ARG_OF_PERICENTER = 272.5695
MEAN_ANOMALY   = 87.4943

EPHEMERIS_TYPE = 0
CLASSIFICATION_TYPE = U
NORAD_CAT_ID   = 66570
ELEMENT_SET_NO = 999
REV_AT_EPOCH   = 553
BSTAR          = .1951259E-2
MEAN_MOTION_DOT = .11602E-2
MEAN_MOTION_DDOT = 0

CCSDS_OMM_VERS = 2.0
CREATION_DATE  = 
ORIGINATOR     = 

OBJECT_NAME    = STARLINK-35836
OBJECT_ID      = 2025-268Q
CENTER_NAME    = EARTH
REF_FRAME      = TEME
TIME_SYSTEM    = UTC
MEAN_ELEMENT_THEORY = SGP/SGP4

EPOCH          = 2025-12-18T13:53:50.126496
MEAN_MOTION    = 15.50657425
ECCENTRICITY   = .00029402
INCLINATION    = 43.0050
RA_OF_ASC_NODE = 86.9833
ARG_OF_PERICENTER = 265.2531
MEAN_ANOMALY   = 94.7993

EPHEMERIS_TYPE = 0
CLASSIFICATION_TYPE = U
NORAD_CAT_ID   = 66571
ELEMENT_SET_NO = 999
REV_AT_EPOCH   = 553
BSTAR          = .14216549E-2
MEAN_MOTION_DOT = .84205E-3
MEAN_MOTION_DDOT = 0

CCSDS_OMM_VERS = 2.0
CREATION_DATE  = 
ORIGINATOR     = 

OBJECT_NAME    = STARLINK-35870
OBJECT_ID      = 2025-268R
CENTER_NAME    = EARTH
REF_FRAME      = TEME
TIME_SYSTEM    = UTC
MEAN_ELEMENT_THEORY = SGP/SGP4

EPOCH          = 2025-12-18T13:53:21.068448
MEAN_MOTION    = 15.50616693
ECCENTRICITY   = .00020258
INCLINATION    = 43.0005
RA_OF_ASC_NODE = 86.9812
ARG_OF_PERICENTER = 264.3223
MEAN_ANOMALY   = 95.7406

EPHEMERIS_TYPE = 0
CLASSIFICATION_TYPE = U
NORAD_CAT_ID   = 66572
ELEMENT_SET_NO = 999
REV_AT_EPOCH   = 553
BSTAR          = .11750785E-2
MEAN_MOTION_DOT = .69302E-3
MEAN_MOTION_DDOT = 0

CCSDS_OMM_VERS = 2.0
CREATION_DATE  = 
ORIGINATOR     = 

OBJECT_NAME    = STARLINK-35650
OBJECT_ID      = 2025-268S
CENTER_NAME    = EARTH
REF_FRAME      = TEME
TIME_SYSTEM    = UTC
MEAN_ELEMENT_THEORY = SGP/SGP4

EPOCH          = 2025-12-18T13:52:51.222432
MEAN_MOTION    = 15.50616694
ECCENTRICITY   = .00024451
INCLINATION    = 43.0037
RA_OF_ASC_NODE = 86.9781
ARG_OF_PERICENTER = 266.7745
MEAN_ANOMALY   = 93.2835

EPHEMERIS_TYPE = 0
CLASSIFICATION_TYPE = U
NORAD_CAT_ID   = 66573
ELEMENT_SET_NO = 999
REV_AT_EPOCH   = 553
BSTAR          = .10622596E-2
MEAN_MOTION_DOT = .62563E-3
MEAN_MOTION_DDOT = 0

CCSDS_OMM_VERS = 2.0
CREATION_DATE  = 
ORIGINATOR     = 

OBJECT_NAME    = STARLINK-35812
OBJECT_ID      = 2025-268T
CENTER_NAME    = EARTH
REF_FRAME      = TEME
TIME_SYSTEM    = UTC
MEAN_ELEMENT_THEORY = SGP/SGP4

EPOCH          = 2025-12-18T13:52:23.853504
MEAN_MOTION    = 15.50580135
ECCENTRICITY   = .00009911
INCLINATION    = 43.0017
RA_OF_ASC_NODE = 86.9742
ARG_OF_PERICENTER = 254.2055
MEAN_ANOMALY   = 105.8696

EPHEMERIS_TYPE = 0
CLASSIFICATION_TYPE = U
NORAD_CAT_ID   = 66574
ELEMENT_SET_NO = 999
REV_AT_EPOCH   = 553
BSTAR          = .14172394E-2
MEAN_MOTION_DOT = .83697E-3
MEAN_MOTION_DDOT = 0

CCSDS_OMM_VERS = 2.0
CREATION_DATE  = 
ORIGINATOR     = 

OBJECT_NAME    = STARLINK-35810
OBJECT_ID      = 2025-268U
CENTER_NAME    = EARTH
REF_FRAME      = TEME
TIME_SYSTEM    = UTC
MEAN_ELEMENT_THEORY = SGP/SGP4

EPOCH          = 2025-12-18T13:51:52.332192
MEAN_MOTION    = 15.50624193
ECCENTRICITY   = .0001255
INCLINATION    = 42.9978
RA_OF_ASC_NODE = 86.9711
ARG_OF_PERICENTER = 258.1101
MEAN_ANOMALY   = 101.9618

EPHEMERIS_TYPE = 0
CLASSIFICATION_TYPE = U
NORAD_CAT_ID   = 66575
ELEMENT_SET_NO = 999
REV_AT_EPOCH   = 553
BSTAR          = .13554933E-2
MEAN_MOTION_DOT = .80126E-3
MEAN_MOTION_DDOT = 0

CCSDS_OMM_VERS = 2.0
CREATION_DATE  = 
ORIGINATOR     = 

OBJECT_NAME    = STARLINK-35814
OBJECT_ID      = 2025-268V
CENTER_NAME    = EARTH
REF_FRAME      = TEME
TIME_SYSTEM    = UTC
MEAN_ELEMENT_THEORY = SGP/SGP4

EPOCH          = 2025-12-18T13:51:22.756608
MEAN_MOTION    = 15.50643987
ECCENTRICITY   = .00007852
INCLINATION    = 42.9999
RA_OF_ASC_NODE = 86.9684
ARG_OF_PERICENTER = 254.7865
MEAN_ANOMALY   = 105.2909

EPHEMERIS_TYPE = 0
CLASSIFICATION_TYPE = U
NORAD_CAT_ID   = 66576
ELEMENT_SET_NO = 999
REV_AT_EPOCH   = 553
BSTAR          = .17580641E-2
MEAN_MOTION_DOT = .104423E-2
MEAN_MOTION_DDOT = 0

CCSDS_OMM_VERS = 2.0
CREATION_DATE  = 
ORIGINATOR     = 

OBJECT_NAME    = STARLINK-35815
OBJECT_ID      = 2025-268W
CENTER_NAME    = EARTH
REF_FRAME      = TEME
TIME_SYSTEM    = UTC
MEAN_ELEMENT_THEORY = SGP/SGP4

EPOCH          = 2025-12-18T13:50:52.755072
MEAN_MOTION    = 15.50637566
ECCENTRICITY   = .0000826
INCLINATION    = 42.9975
RA_OF_ASC_NODE = 86.9649
ARG_OF_PERICENTER = 201.5718
MEAN_ANOMALY   = 158.5107

EPHEMERIS_TYPE = 0
CLASSIFICATION_TYPE = U
NORAD_CAT_ID   = 66577
ELEMENT_SET_NO = 999
REV_AT_EPOCH   = 553
BSTAR          = .11034269E-2
MEAN_MOTION_DOT = .65066E-3
MEAN_MOTION_DDOT = 0

CCSDS_OMM_VERS = 2.0
CREATION_DATE  = 
ORIGINATOR     = 

OBJECT_NAME    = STARLINK-35743
OBJECT_ID      = 2025-268X
CENTER_NAME    = EARTH
REF_FRAME      = TEME
TIME_SYSTEM    = UTC
MEAN_ELEMENT_THEORY = SGP/SGP4

EPOCH          = 2025-12-18T13:50:23.446464
MEAN_MOTION    = 15.50594613
ECCENTRICITY   = .00029451
INCLINATION    = 42.9988
RA_OF_ASC_NODE = 86.9631
ARG_OF_PERICENTER = 282.0124
MEAN_ANOMALY   = 78.0406

EPHEMERIS_TYPE = 0
CLASSIFICATION_TYPE = U
NORAD_CAT_ID   = 66578
ELEMENT_SET_NO = 999
REV_AT_EPOCH   = 553
BSTAR          = .13255776E-2
MEAN_MOTION_DOT = .78256E-3
MEAN_MOTION_DDOT = 0

